{
    "links": {
        "self": "http://www.neowsapp.com/rest/v1/neo/54087419?api_key=iIulBulltgU6a56xZRHN4H3l9WmuAYTsLGpBGhQ2"
    },
    "id": "54087419",
    "neo_reference_id": "54087419",
    "name": "(2020 VJ)",
    "designation": "2020 VJ",
    "nasa_jpl_url": "http://ssd.jpl.nasa.gov/sbdb.cgi?sstr=54087419",
    "absolute_magnitude_h": 25.291,
    "estimated_diameter": {
        "kilometers": {
            "estimated_diameter_min": 0.0232463609,
            "estimated_diameter_max": 0.0519804433
        },
        "meters": {
            "estimated_diameter_min": 23.2463609353,
            "estimated_diameter_max": 51.9804432809
        },
        "miles": {
            "estimated_diameter_min": 0.0144446145,
            "estimated_diameter_max": 0.03229914
        },
        "feet": {
            "estimated_diameter_min": 76.2675908111,
            "estimated_diameter_max": 170.5395175338
        }
    },
    "is_potentially_hazardous_asteroid": false,
    "close_approach_data": [
        {
            "close_approach_date": "2020-11-01",
            "close_approach_date_full": "2020-Nov-01 10:11",
            "epoch_date_close_approach": 1604225460000,
            "relative_velocity": {
                "kilometers_per_second": "16.9079903345",
                "kilometers_per_hour": "60868.7652041251",
                "miles_per_hour": "37821.4835791965"
            },
            "miss_distance": {
                "astronomical": "0.0435259768",
                "lunar": "16.9316049752",
                "kilometers": "6511393.418949416",
                "miles": "4045992.2553813008"
            },
            "orbiting_body": "Earth"
        }
    ],
    "orbital_data": {
        "orbit_id": "6",
        "orbit_determination_date": "2020-11-10 05:19:31",
        "first_observation_date": "2020-11-04",
        "last_observation_date": "2020-11-09",
        "data_arc_in_days": 5,
        "observations_used": 44,
        "orbit_uncertainty": "8",
        "minimum_orbit_intersection": ".0415186",
        "jupiter_tisserand_invariant": "3.904",
        "epoch_osculation": "2459158.5",
        "eccentricity": ".4992148363229493",
        "semi_major_axis": "1.751722250681269",
        "inclination": "21.79521688391527",
        "ascending_node_longitude": "42.46258595706899",
        "orbital_period": "846.8301200477355",
        "perihelion_distance": ".8772365140241508",
        "perihelion_argument": "300.5644663623125",
        "aphelion_distance": "2.626207987338387",
        "perihelion_time": "2459113.170570255657",
        "mean_anomaly": "19.27021054357822",
        "mean_motion": ".4251147797857107",
        "equinox": "J2000",
        "orbit_class": {
            "orbit_class_type": "APO",
            "orbit_class_description": "Near-Earth asteroid orbits which cross the Earth’s orbit similar to that of 1862 Apollo",
            "orbit_class_range": "a (semi-major axis) > 1.0 AU; q (perihelion) < 1.017 AU"
        }
    },
    "is_sentry_object": false
}